QIANFAN-9               
1 60387U 24140J   25197.88794500  .00000118  00000+0  16491-3 0  9993
2 60387  88.9847 314.7020 0014304 265.9204  94.0312 13.50952774 47235
QIANFAN-10              
1 60388U 24140K   25197.89210429  .00000116  00000+0  16194-3 0  9996
2 60388  88.9857 314.0353 0013159 239.9629 120.0217 13.50955269 47368
QIANFAN-11              
1 60389U 24140L   25197.85503834  .00000110  00000+0  15231-3 0  9993
2 60389  88.9783 314.7365 0012336 265.4249  94.5493 13.50955331 47018
QIANFAN-12              
1 60390U 24140M   25197.87555770  .00000121  00000+0  16960-3 0  9995
2 60390  88.9826 314.7127 0011095 274.7650  85.2234 13.50955102 47188
QIANFAN-13              
1 60391U 24140N   25197.92083770  .00000118  00000+0  16374-3 0  9993
2 60391  88.9838 314.7895 0010908 277.7350  82.2562 13.50954911 47173
QIANFAN-14              
1 60392U 24140P   25197.87142360  .00000122  00000+0  17100-3 0  9992
2 60392  88.9817 314.7241 0014592 277.9558  81.9937 13.50955972 47160
QIANFAN-15              
1 60393U 24140Q   25197.87974858  .00000121  00000+0  16929-3 0  9995
2 60393  88.9841 314.6445 0010492 261.4120  98.5842 13.50952874 47247
QIANFAN-16              
1 60394U 24140R   25197.86740679  .00000118  00000+0  16431-3 0  9991
2 60394  88.9844 314.7612 0012524 282.5269  77.4481 13.50955123 47193
